{
  "type": "FeatureCollection",
  "features": [
    {
      "type": "Feature",
      "properties": {
        "norad_id": 31307,
        "name": "GALAXY 17 (G-17)",
        "group": "intelsat",
        "lat": -1.926607549946402,
        "lon": -46.94286525892127,
        "alt_km": 35779.043164619434,
        "timestamp": "2025-12-04T21:36:15.542039+00:00",
        "meta_object_name": "GALAXY 17 (G-17)",
        "meta_object_id": "2007-016B",
        "meta_epoch": "2025-12-04T13:19:21.930816",
        "meta_mean_motion": 1.00270292,
        "meta_eccentricity": 0.00061167,
        "meta_inclination": 2.478,
        "meta_ra_of_asc_node": 82.3782,
        "meta_arg_of_pericenter": 157.9017,
        "meta_mean_anomaly": 308.189,
        "meta_ephemeris_type": 0,
        "meta_classification_type": "U",
        "meta_norad_cat_id": 31307,
        "meta_element_set_no": 999,
        "meta_rev_at_epoch": 6785,
        "meta_bstar": 0,
        "meta_mean_motion_dot": -1.93e-06,
        "meta_mean_motion_ddot": 0,
        "tle_line1": "1 31307U 07016B   25338.55511494 -.00000193  00000+0  00000+0 0  9995",
        "tle_line2": "2 31307   2.4780  82.3782 0006116 157.9017 308.1890  1.00270292 67859"
      },
      "geometry": {
        "type": "Point",
        "coordinates": [
          -46.94286525892127,
          -1.926607549946402
        ]
      }
    },
    {
      "type": "Feature",
      "properties": {
        "norad_id": 31862,
        "name": "DIRECTV 10",
        "group": "intelsat",
        "lat": 0.0015603196576412315,
        "lon": -64.77468701571547,
        "alt_km": 35785.23346177836,
        "timestamp": "2025-12-04T21:36:15.542051+00:00",
        "meta_object_name": "DIRECTV 10",
        "meta_object_id": "2007-032A",
        "meta_epoch": "2025-12-04T09:48:46.163232",
        "meta_mean_motion": 1.00273306,
        "meta_eccentricity": 3.683e-05,
        "meta_inclination": 0.0091,
        "meta_ra_of_asc_node": 87.0952,
        "meta_arg_of_pericenter": 133.8399,
        "meta_mean_anomaly": 256.9462,
        "meta_ephemeris_type": 0,
        "meta_classification_type": "U",
        "meta_norad_cat_id": 31862,
        "meta_element_set_no": 999,
        "meta_rev_at_epoch": 4364,
        "meta_bstar": 0,
        "meta_mean_motion_dot": -8.8e-07,
        "meta_mean_motion_ddot": 0,
        "tle_line1": "1 31862U 07032A   25338.40886763 -.00000088  00000+0  00000+0 0  9990",
        "tle_line2": "2 31862   0.0091  87.0952 0000368 133.8399 256.9462  1.00273306 43649"
      },
      "geometry": {
        "type": "Point",
        "coordinates": [
          -64.77468701571547,
          0.0015603196576412315
        ]
      }
    },
    {
      "type": "Feature",
      "properties": {
        "norad_id": 32253,
        "name": "INTELSAT 11 (IS-11)",
        "group": "intelsat",
        "lat": -1.866276265833266,
        "lon": -61.72051683216647,
        "alt_km": 36110.54130979266,
        "timestamp": "2025-12-04T21:36:15.542062+00:00",
        "meta_object_name": "INTELSAT 11 (IS-11)",
        "meta_object_id": "2007-044B",
        "meta_epoch": "2025-12-04T13:15:29.801664",
        "meta_mean_motion": 0.99047143,
        "meta_eccentricity": 0.00092945,
        "meta_inclination": 3.0574,
        "meta_ra_of_asc_node": 81.0671,
        "meta_arg_of_pericenter": 161.8583,
        "meta_mean_anomaly": 291.3189,
        "meta_ephemeris_type": 0,
        "meta_classification_type": "U",
        "meta_norad_cat_id": 32253,
        "meta_element_set_no": 999,
        "meta_rev_at_epoch": 6652,
        "meta_bstar": 0,
        "meta_mean_motion_dot": 2.5e-07,
        "meta_mean_motion_ddot": 0,
        "tle_line1": "1 32253U 07044B   25338.55242826  .00000025  00000+0  00000+0 0  9990",
        "tle_line2": "2 32253   3.0574  81.0671 0009294 161.8583 291.3189  0.99047143 66524"
      },
      "geometry": {
        "type": "Point",
        "coordinates": [
          -61.72051683216647,
          -1.866276265833266
        ]
      }
    },
    {
      "type": "Feature",
      "properties": {
        "norad_id": 32388,
        "name": "HORIZONS-2",
        "group": "intelsat",
        "lat": -1.8433200742906424,
        "lon": -35.73192213155122,
        "alt_km": 35775.50196162301,
        "timestamp": "2025-12-04T21:36:15.542074+00:00",
        "meta_object_name": "HORIZONS-2",
        "meta_object_id": "2007-063B",
        "meta_epoch": "2025-12-04T13:22:29.131968",
        "meta_mean_motion": 1.00271685,
        "meta_eccentricity": 0.00050306,
        "meta_inclination": 2.0989,
        "meta_ra_of_asc_node": 83.0494,
        "meta_arg_of_pericenter": 182.0483,
        "meta_mean_anomaly": 295.3707,
        "meta_ephemeris_type": 0,
        "meta_classification_type": "U",
        "meta_norad_cat_id": 32388,
        "meta_element_set_no": 999,
        "meta_rev_at_epoch": 6586,
        "meta_bstar": 0,
        "meta_mean_motion_dot": -2.4e-06,
        "meta_mean_motion_ddot": 0,
        "tle_line1": "1 32388U 07063B   25338.55728162 -.00000240  00000+0  00000+0 0  9992",
        "tle_line2": "2 32388   2.0989  83.0494 0005030 182.0483 295.3707  1.00271685 65864"
      },
      "geometry": {
        "type": "Point",
        "coordinates": [
          -35.73192213155122,
          -1.8433200742906424
        ]
      }
    },
    {
      "type": "Feature",
      "properties": {
        "norad_id": 32729,
        "name": "DIRECTV 11",
        "group": "intelsat",
        "lat": 0.0014875006204542272,
        "lon": -61.179591758240875,
        "alt_km": 35785.32167911066,
        "timestamp": "2025-12-04T21:36:15.542086+00:00",
        "meta_object_name": "DIRECTV 11",
        "meta_object_id": "2008-013A",
        "meta_epoch": "2025-12-04T09:49:46.066944",
        "meta_mean_motion": 1.00271822,
        "meta_eccentricity": 2.818e-05,
        "meta_inclination": 0.0106,
        "meta_ra_of_asc_node": 92.3257,
        "meta_arg_of_pericenter": 156.2768,
        "meta_mean_anomaly": 233.1284,
        "meta_ephemeris_type": 0,
        "meta_classification_type": "U",
        "meta_norad_cat_id": 32729,
        "meta_element_set_no": 999,
        "meta_rev_at_epoch": 4364,
        "meta_bstar": 0,
        "meta_mean_motion_dot": -1.11e-06,
        "meta_mean_motion_ddot": 0,
        "tle_line1": "1 32729U 08013A   25338.40956096 -.00000111  00000+0  00000+0 0  9997",
        "tle_line2": "2 32729   0.0106  92.3257 0000281 156.2768 233.1284  1.00271822 43649"
      },
      "geometry": {
        "type": "Point",
        "coordinates": [
          -61.179591758240875,
          0.0014875006204542272
        ]
      }
    },
    {
      "type": "Feature",
      "properties": {
        "norad_id": 32951,
        "name": "GALAXY 18 (G-18)",
        "group": "intelsat",
        "lat": -0.03589163229979873,
        "lon": -84.97864001922532,
        "alt_km": 35774.07242366636,
        "timestamp": "2025-12-04T21:36:15.542098+00:00",
        "meta_object_name": "GALAXY 18 (G-18)",
        "meta_object_id": "2008-024A",
        "meta_epoch": "2025-12-04T14:02:38.764032",
        "meta_mean_motion": 1.00268646,
        "meta_eccentricity": 0.00032503,
        "meta_inclination": 0.0161,
        "meta_ra_of_asc_node": 1.1901,
        "meta_arg_of_pericenter": 253.0124,
        "meta_mean_anomaly": 267.1148,
        "meta_ephemeris_type": 0,
        "meta_classification_type": "U",
        "meta_norad_cat_id": 32951,
        "meta_element_set_no": 999,
        "meta_rev_at_epoch": 4390,
        "meta_bstar": 0,
        "meta_mean_motion_dot": 4e-07,
        "meta_mean_motion_ddot": 0,
        "tle_line1": "1 32951U 08024A   25338.58517088  .00000040  00000+0  00000+0 0  9999",
        "tle_line2": "2 32951   0.0161   1.1901 0003250 253.0124 267.1148  1.00268646 43907"
      },
      "geometry": {
        "type": "Point",
        "coordinates": [
          -84.97864001922532,
          -0.03589163229979873
        ]
      }
    },
    {
      "type": "Feature",
      "properties": {
        "norad_id": 33153,
        "name": "INTELSAT 25 (IS-25)",
        "group": "intelsat",
        "lat": -2.125613383229815,
        "lon": 6.59431517922528,
        "alt_km": 35792.62677974484,
        "timestamp": "2025-12-04T21:36:15.542110+00:00",
        "meta_object_name": "INTELSAT 25 (IS-25)",
        "meta_object_id": "2008-034A",
        "meta_epoch": "2025-12-04T11:51:49.344768",
        "meta_mean_motion": 1.0027113,
        "meta_eccentricity": 0.0005398,
        "meta_inclination": 2.205,
        "meta_ra_of_asc_node": 82.7411,
        "meta_arg_of_pericenter": 178.5677,
        "meta_mean_anomaly": 318.723,
        "meta_ephemeris_type": 0,
        "meta_classification_type": "U",
        "meta_norad_cat_id": 33153,
        "meta_element_set_no": 999,
        "meta_rev_at_epoch": 6374,
        "meta_bstar": 0,
        "meta_mean_motion_dot": -2.1e-06,
        "meta_mean_motion_ddot": 0,
        "tle_line1": "1 33153U 08034A   25338.49432112 -.00000210  00000+0  00000+0 0  9999",
        "tle_line2": "2 33153   2.2050  82.7411 0005398 178.5677 318.7230  1.00271130 63744"
      },
      "geometry": {
        "type": "Point",
        "coordinates": [
          6.59431517922528,
          -2.125613383229815
        ]
      }
    }
  ]
}